OBJECT_NAME,OBJECT_ID,EPOCH,MEAN_MOTION,ECCENTRICITY,INCLINATION,RA_OF_ASC_NODE,ARG_OF_PERICENTER,MEAN_ANOMALY,EPHEMERIS_TYPE,CLASSIFICATION_TYPE,NORAD_CAT_ID,ELEMENT_SET_NO,REV_AT_EPOCH,BSTAR,MEAN_MOTION_DOT,MEAN_MOTION_DDOT
BEIDOU-3S IGSO-1S (C31),2015-019A,2026-06-13T20:31:20.100864,1.00251097,.0038983,49.2022,295.5028,190.8193,175.4051,0,U,40549,999,4104,0,-.18E-5,0
GPS BIIF-10 (PRN 08),2015-033A,2026-06-13T17:32:26.506176,2.00556346,.0115065,53.9851,267.2291,30.2200,330.4662,0,U,40730,999,7992,0,-.17E-6,0
BEIDOU-3S M2S (C58),2015-037A,2026-06-11T22:53:31.021728,1.86232251,.00081079,54.8763,302.2271,260.4209,99.4710,0,U,40748,999,7402,0,-.67E-6,0
BEIDOU-3S M1S (C57),2015-037B,2026-06-13T05:39:19.373760,1.86254754,.0003517,54.8712,302.1701,61.4306,298.5865,0,U,40749,999,7405,0,-.69E-6,0
GSAT0205 (GALILEO 9),2015-045A,2026-05-24T07:17:44.873376,1.67409242,.00064058,54.9357,222.4171,263.0112,96.9692,0,U,40889,999,6656,0,-.14E-6,0
GSAT0206 (GALILEO 10),2015-045B,2026-06-13T08:25:46.280640,1.70473791,.00016978,54.9458,221.7104,337.4891,22.6033,0,U,40890,999,6697,0,.61E-6,0
BEIDOU-3S IGSO-2S (C56),2015-053A,2026-06-12T17:52:21.677376,1.00260455,.0065652,49.2285,258.8368,191.9654,173.7671,0,U,40938,999,3931,0,-.142E-5,0
GPS BIIF-11 (PRN 10),2015-062A,2026-06-13T18:53:26.786976,2.00566893,.01118307,56.9570,30.9422,231.0904,127.9641,0,U,41019,999,7776,0,-.62E-6,0
GSAT-15 (GAGAN/PRN 139),2015-065A,2026-06-14T10:07:48.224352,1.00271049,.0004076,0.0774,265.7676,161.1252,81.2698,0,U,41028,999,3877,0,-.25E-5,0
GSAT0209 (GALILEO 12),2015-079A,2026-06-14T02:32:22.117920,1.70473658,.0005336,55.8256,101.3465,342.3139,17.6233,0,U,41174,999,6472,0,-.9E-7,0
GSAT0208 (GALILEO 11),2015-079B,2026-06-13T03:40:14.751264,1.70473585,.00048272,55.8236,101.3694,343.9776,15.9636,0,U,41175,999,6512,0,-.4E-7,0
IRNSS-1E,2016-003A,2026-06-12T15:26:18.985920,1.00267194,.00179637,33.2248,59.8162,179.0965,5.2620,0,U,41241,999,3803,0,-.313E-5,0
GPS BIIF-12 (PRN 32),2016-007A,2026-06-10T21:16:03.868896,2.00551975,.00960688,55.5202,89.7095,247.3778,111.5924,0,U,41328,999,7571,0,-.12E-6,0
COSMOS 2514 (751),2016-008A,2026-06-14T00:00:29.301696,2.13102509,.00111652,65.0237,313.1159,197.7878,162.1578,0,U,41330,999,8055,0,-.53E-6,0
BEIDOU-2 IGSO-6 (C13),2016-021A,2026-06-13T00:17:42.034848,1.00259939,.00570771,60.2196,38.0819,231.5209,89.2880,0,U,41434,999,3743,0,-.156E-5,0
IRNSS-1G,2016-027A,2026-06-14T12:21:26.512416,1.00267391,.0007539,5.1915,97.5344,354.3555,125.8131,0,U,41469,999,3715,0,-.331E-5,0
GSAT0211 (GALILEO 14),2016-030A,2026-06-14T10:48:10.445760,1.70473900,.0002887,55.0959,221.7703,323.8922,36.1904,0,U,41549,999,6262,0,.59E-6,0
GSAT0210 (GALILEO 13),2016-030B,2026-06-12T08:39:54.847008,1.70473729,.00040525,55.0961,221.8258,240.3650,119.6902,0,U,41550,999,6258,0,.59E-6,0
BEIDOU-2 G7 (C03),2016-037A,2026-06-14T11:55:16.965696,1.00265019,.0006794,1.7121,69.2922,3.9103,118.8529,0,U,41586,999,686,0,-.346E-5,0
EUTELSAT 117 WEST B (WAAS/PRN 131),2016-038B,2026-06-14T12:09:38.892096,1.00268707,.0000357,0.0431,167.2819,269.5313,251.4058,0,U,41589,999,3663,0,-.4E-7,0
GSAT0207 (GALILEO 15),2016-069A,2026-06-13T05:25:15.549024,1.70473583,.000534,55.4965,101.1958,329.2109,30.7143,0,U,41859,999,5933,0,-.5E-7,0
GSAT0212 (GALILEO 16),2016-069B,2026-06-13T01:54:12.454848,1.70473740,.00046533,55.4941,101.1951,357.9149,2.0398,0,U,41860,999,5958,0,-.4E-7,0
GSAT0213 (GALILEO 17),2016-069C,2026-06-11T16:28:59.869920,1.70474158,.00050604,55.4953,101.2414,311.8034,48.1151,0,U,41861,999,5942,0,.7E-7,0
GSAT0214 (GALILEO 18),2016-069D,2026-06-12T10:04:11.984160,1.70473835,.00042871,55.4945,101.2137,319.1479,40.7786,0,U,41862,999,5956,0,.1E-7,0
SES-15 (WAAS/PRN 133),2017-026A,2026-06-14T12:14:38.573952,1.00268126,.0000361,0.0196,336.5575,56.3484,284.3912,0,U,42709,999,740,0,.67E-6,0
QZS-2 (QZSS/PRN 194),2017-028A,2026-06-09T12:56:43.810944,1.00285994,.07605811,39.4388,243.2674,269.1776,81.0235,0,U,42738,999,754,0,-.147E-5,0
QZS-3 (QZSS/PRN 199),2017-048A,2026-06-14T10:54:27.962784,1.00264224,.0002422,0.0261,158.7309,293.7784,100.8061,0,U,42917,999,3223,0,0,0
COSMOS 2522 (752),2017-055A,2026-06-13T08:51:13.499136,2.13101904,.0010818,64.0787,192.0144,240.5111,119.4561,0,U,42939,999,6789,0,.114E-5,0
QZS-4 (QZSS/PRN 195),2017-062A,2026-06-14T08:35:20.736960,1.00251032,.0745249,40.1096,343.5183,271.7117,273.4729,0,U,42965,999,3177,0,-.335E-5,0
BEIDOU-3 M1 (C19),2017-069A,2026-06-13T08:59:02.379840,1.86231168,.0010559,56.6884,63.2107,324.8482,35.1090,0,U,43001,999,5853,0,-.55E-6,0
BEIDOU-3 M2 (C20),2017-069B,2026-06-12T18:37:35.969664,1.86230859,.00092204,56.6872,63.2666,350.0125,9.9939,0,U,43002,999,5851,0,-.55E-6,0
